[{"OBJECT_NAME":"SUPERVIEW NEO-2 02","OBJECT_ID":"2022-082C","EPOCH":"2026-03-10T00:20:09.225888","MEAN_MOTION":15.24501295,"ECCENTRICITY":0.00016181,"INCLINATION":97.3937,"RA_OF_ASC_NODE":80.3251,"ARG_OF_PERICENTER":90.4138,"MEAN_ANOMALY":269.7285,"EPHEMERIS_TYPE":0,"CLASSIFICATION_TYPE":"U","NORAD_CAT_ID":53130,"ELEMENT_SET_NO":999,"REV_AT_EPOCH":20310,"BSTAR":-4.28097e-7,"MEAN_MOTION_DOT":-8.1e-7,"MEAN_MOTION_DDOT":0},{"OBJECT_NAME":"STARLINK-30174","OBJECT_ID":"2023-119H","EPOCH":"2026-03-09T22:00:01.999584","MEAN_MOTION":15.18511119,"ECCENTRICITY":0.00012658,"INCLINATION":43.0001,"RA_OF_ASC_NODE":79.6041,"ARG_OF_PERICENTER":257.8733,"MEAN_ANOMALY":298.9214,"EPHEMERIS_TYPE":0,"CLASSIFICATION_TYPE":"U","NORAD_CAT_ID":57609,"ELEMENT_SET_NO":999,"REV_AT_EPOCH":577,"BSTAR":0.055377624,"MEAN_MOTION_DOT":0.01257837,"MEAN_MOTION_DDOT":0}]
